id,franchise_id,franchise_name,restaurant_franchise_id,country,city,lat,lng
240518168622,47,The Juicy Burger,93164,IT,Milan,45.463,9.184
51539607601,50,The Pancake House,6934,FR,Paris,48.874,2.300
206158430276,69,Dragonfly Cafe,53370,FR,Paris,48.882,2.313
13,14,The Gourmet Garden,47732,US,Champaign,40.131,-88.244
34359738396,29,The Olive Branch,50333,IT,Milan,45.471,9.157
53,54,The Spice House,47732,FR,Paris,48.873,2.349
188978561028,5,The Hungry Hippo,3642,US,Enterprise,31.327,-85.836
231928234015,32,The Orange Peeler,33573,IT,Milan,45.516,9.227
206158430279,72,Flamingo Cafe,53370,GB,London,51.493,-0.127
120259084300,13,The Firehouse,59829,US,Branson,36.633,-93.272
17179869184,1,Savoria,10902,US,Arvada,-8.700,115.164
206158430236,29,The Olive Branch,53370,ES,Barcelona,41.396,2.162
180388626455,24,The Fisherman's Catch,7531,US,Hobart,42.990,-78.742
214748364810,11,The Flaming Wok,92040,US,Jellico,36.588,-84.127
214748364818,19,The Tasting Room,92040,US,Bowlinggreen,41.374,-83.608
137438953473,2,Bella Cucina,11038,US,Grand Prairie,32.784,-97.060
103079215157,54,The Spice House,4340,FR,Paris,48.847,2.283
146028888148,85,The Plum Cafe,70611,NL,Amsterdam,52.370,4.861
266287972432,81,The Oak Room,11263,GB,London,51.546,-0.055
249108103209,42,The Daily Scoop,55897,US,Tigerton,44.750,-89.066
60129542206,63,Cafe Paris,71555,GB,London,51.520,-0.158
266287972410,59,Azalea Cafe,11263,FR,Paris,48.872,2.297
257698037817,58,A Tasty Bite,26468,FR,Paris,48.871,2.343
85899345933,14,The Gourmet Garden,18952,US,Rohnert Park,38.364,-122.715
8589934639,48,The Local Cafe,12630,FR,Paris,48.875,2.326
146028888146,83,The Pantry,70611,NL,Amsterdam,52.335,4.889
266287972407,56,The Waffle House,11263,FR,Paris,48.871,2.298
77309411379,52,The Red Door,78190,FR,Paris,48.868,2.321
154618822705,50,The Pancake House,41484,AT,Vienna,48.211,16.374
154618822715,60,Big City Grill,41484,FR,Paris,48.874,2.322
249108103237,70,Earth and Vine,55897,GB,London,51.519,-0.135
197568495620,5,The Hungry Hippo,24784,US,Mobile,30.688,-88.041
85899345974,55,The Steak House,18952,GB,London,51.494,-0.188
17179869190,7,Cafe Roma,10902,US,Duluth,33.951,-84.125
137438953528,57,The Yellow Submarine,11038,GB,London,51.527,-0.132
180388626502,71,Fire and Spice,7531,NL,Amsterdam,52.368,4.868
128849018933,54,The Spice House,5679,FR,Paris,48.866,2.326
42949673014,55,The Steak House,89646,FR,Paris,48.872,2.303
120259084323,36,Blue Ocean Grill,59829,FR,Paris,48.832,2.354
128849018953,74,Garden of Eatin',5679,GB,London,51.524,-0.185
214748364865,66,City Bites,92040,GB,London,51.490,-0.138
137438953530,59,Azalea Cafe,11038,NL,Amsterdam,52.338,4.818
257698037764,5,The Hungry Hippo,26468,US,New Orleans,29.952,-90.071
188978561030,7,Cafe Roma,3642,US,Jacksonville,31.965,-95.255
171798691881,42,The Daily Scoop,65939,FR,Paris,48.846,2.324
103079215167,64,Chateau de Cuisine,4340,GB,London,51.505,-0.126
128849018920,41,The Daily Bread,5679,IT,Milan,45.502,9.222
163208757318,71,Fire and Spice,96638,GB,London,51.522,-0.153
249108103182,15,The Pearl Kitchen,55897,US,Marina,36.699,-121.806
266287972370,19,The Tasting Room,11263,US,Percival,40.690,-95.789
214748364809,10,The Golden Spoon,92040,US,El Reno,35.505,-97.973
180388626460,29,The Olive Branch,7531,US,Gaylord,44.556,-94.224
180388626464,33,The Blue Elephant,7531,IT,Milan,45.478,9.203
163208757267,20,The Brasserie,96638,US,Bellmawr,39.864,-75.078
103079215133,30,The Wine Cellar,4340,US,Drums,41.033,-75.953
171798691869,30,The Wine Cellar,65939,IT,Milan,45.469,9.195
197568495695,80,The Market Cafe,24784,GB,London,51.505,-0.099
29,30,The Wine Cellar,47732,US,Canyonville,42.944,-123.291
128849018932,53,The Red Rooster,5679,FR,Paris,48.858,2.280
197568495661,46,The Italian Table,24784,AT,Vienna,48.195,16.384
137438953483,12,The Wooden Spoon,11038,US,Denver,39.915,-104.993
17179869201,18,The Harvest Room,10902,US,Rehoboth Beach,38.717,-75.082
103079215122,19,The Tasting Room,4340,US,Emporia,36.707,-77.560
128849018912,33,The Blue Elephant,5679,US,Camden,44.202,-69.075
163208757251,4,The Blue Plate,96638,US,Vicksburg,32.314,-90.899
51539607595,44,The French Kitchen,6934,FR,Paris,48.863,2.338
94489280570,59,Azalea Cafe,95399,GB,London,51.520,-0.122
68719476739,4,The Blue Plate,77517,US,Junction,30.494,-99.778
94489280553,42,The Daily Scoop,95399,FR,Paris,48.866,2.283
146028888093,30,The Wine Cellar,70611,US,Albany,42.687,-73.815
146028888141,78,The Hot Spot,70611,GB,London,51.503,-0.152
68719476794,59,Azalea Cafe,77517,GB,London,51.516,-0.180
206158430217,10,The Golden Spoon,53370,US,Barstow,34.891,-117.003
214748364829,30,The Wine Cellar,92040,US,Eau Claire,44.844,-91.596
231928233997,14,The Gourmet Garden,33573,US,Stirling City,39.904,-121.527
206158430228,21,The Lazy Daisy,53370,US,Exton,40.362,-75.626
231928234037,54,The Spice House,33573,GB,London,51.517,-0.070
154618822690,35,Basilica Bistro,41484,US,Clare,43.830,-84.788
77309411374,47,The Juicy Burger,78190,FR,Paris,48.858,2.353
180388626481,50,The Pancake House,7531,FR,Paris,48.871,2.330
231928234003,20,The Brasserie,33573,ES,Barcelona,41.405,2.129
188978561037,14,The Gourmet Garden,3642,US,Chattanooga,34.991,-85.208
163208757286,39,Cinnamon Grill,96638,US,Spearfish,44.480,-103.814
223338299426,35,Basilica Bistro,36937,US,Jamestown,46.882,-98.715
188978561033,10,The Golden Spoon,3642,US,Hope,33.684,-93.612
163208757323,76,Happy Hour Cafe,96638,NL,Amsterdam,52.371,4.894
60129542170,27,The Corner Cafe,71555,ES,Barcelona,41.382,2.184
257698037811,52,The Red Door,26468,FR,Paris,48.864,2.341
146028888127,64,Chateau de Cuisine,70611,FR,Paris,48.861,2.379
68719476773,38,Cafe Viva,77517,US,Kalispell,48.182,-114.305
111669149697,2,Bella Cucina,84488,US,Orlando,28.407,-81.405
8589934607,16,The Spice Tree,12630,US,Burlington,39.299,-102.278
60129542197,54,The Spice House,71555,FR,Paris,48.876,2.359
60129542180,37,Cafe Crepe,71555,AT,Vienna,48.205,16.369
214748364855,56,The Waffle House,92040,FR,Paris,48.865,2.329
42949673017,58,A Tasty Bite,89646,FR,Paris,48.876,2.300
111669149703,8,The Green Olive,84488,US,Birmingham,33.520,-86.809
206158430271,64,Chateau de Cuisine,53370,FR,Paris,48.864,2.366
25769803797,22,The Red Pepper,72230,ES,Barcelona,41.392,2.162
111669149728,33,The Blue Elephant,84488,US,Brockton,42.064,-71.058
154618822683,28,The Spicy Pickle,41484,US,Narragansett,41.432,-71.462
85899345984,65,Chef's Corner,18952,GB,London,51.537,-0.002
249108103185,18,The Harvest Room,55897,US,San Francisco,37.792,-122.401
34359738440,73,Fresh Harvest,50333,NL,Amsterdam,52.354,4.866
206158430265,58,A Tasty Bite,53370,FR,Paris,48.844,2.316
249108103215,48,The Local Cafe,55897,IT,Milan,45.514,9.119
103079215170,67,Crimson and Clover,4340,GB,London,51.510,-0.188
51539607606,55,The Steak House,6934,GB,London,51.513,-0.187
94489280551,40,Crimson Cafe,95399,FR,Paris,48.838,2.306
146028888142,79,The Huckleberry Cafe,70611,GB,London,51.507,-0.129
8589934651,60,Big City Grill,12630,GB,London,51.497,-0.158
25769803816,41,The Daily Bread,72230,IT,Milan,45.466,9.192
163208757297,50,The Pancake House,96638,AT,Vienna,48.234,16.421
266287972376,25,The Cozy Cafe,11263,ES,Barcelona,41.394,2.164
188978561058,35,Basilica Bistro,3642,US,Madison,43.073,-89.440
66,67,Crimson and Clover,47732,NL,Amsterdam,52.350,4.876
146028888096,33,The Blue Elephant,70611,US,Decorah,43.292,-91.797
214748364873,74,Garden of Eatin',92040,GB,London,51.517,-0.137
60129542199,56,The Waffle House,71555,GB,London,51.474,-0.019
94489280559,48,The Local Cafe,95399,FR,Paris,48.873,2.336
188978561102,79,The Huckleberry Cafe,3642,GB,London,51.583,-0.217
180388626440,9,The Grill House,7531,US,Max Meadows,36.941,-80.944
128849018948,69,Dragonfly Cafe,5679,GB,London,51.508,-0.144
51539607577,26,The Silver Spoon,6934,US,Archbald,41.494,-75.592
171798691880,41,The Daily Bread,65939,FR,Paris,48.845,2.352
154618822669,14,The Gourmet Garden,41484,US,Franklin,35.911,-86.823
111669149716,21,The Lazy Daisy,84488,US,Bloomington,40.460,-88.977
231928234044,61,Blue Water Bistro,33573,US,Harleigh,54.153,11.754
180388626492,61,Blue Water Bistro,7531,GB,London,51.508,-0.155
85899345922,3,Spice Bazaar,18952,US,West Palm Beach,26.691,-80.073
103079215158,55,The Steak House,4340,FR,Paris,48.861,2.343
8589934638,47,The Juicy Burger,12630,FR,Paris,48.871,2.326
197568495658,43,The Food House,24784,US,Mohawk,47.415,-88.299
34359738409,42,The Daily Scoop,50333,FR,Paris,48.846,2.345
111669149708,13,The Firehouse,84488,US,Yellville,36.105,-92.611
154618822712,57,The Yellow Submarine,41484,FR,Paris,48.861,2.311
206158430241,34,The Tasty Treat,53370,US,Hampton,42.910,-70.813
42949672980,21,The Lazy Daisy,89646,ES,Barcelona,41.384,2.151
154618822708,53,The Red Rooster,41484,FR,Paris,48.853,2.330
43,44,The French Kitchen,47732,AT,Vienna,48.192,16.355
214748364845,46,The Italian Table,92040,FR,Paris 06,48.845,2.321
197568495644,29,The Olive Branch,24784,ES,Barcelona,41.391,2.159
34359738383,16,The Spice Tree,50333,ES,Barcelona,41.380,2.181
77309411341,14,The Gourmet Garden,78190,US,Bull Shoals,36.382,-92.591
171798691846,7,Cafe Roma,65939,US,Rocky Mount,35.979,-77.847
8589934632,41,The Daily Bread,12630,FR,Paris,48.847,2.326
231928234038,55,The Steak House,33573,NL,Amsterdam,52.331,4.877
266287972425,74,Garden of Eatin',11263,GB,London,51.507,0.039
214748364875,76,Happy Hour Cafe,92040,GB,London,51.524,-0.079
266287972398,47,The Juicy Burger,11263,FR,Paris,48.830,2.284
171798691877,38,Cafe Viva,65939,AT,Vienna,48.197,16.367
206158430277,70,Earth and Vine,53370,US,Raymond,50.940,6.961
188978561057,34,The Tasty Treat,3642,US,Fitchburg,42.546,-71.853
171798691892,53,The Red Rooster,65939,US,Northbrook,50.107,8.761
34359738443,76,Happy Hour Cafe,50333,NL,Amsterdam,52.365,4.884
249108103196,29,The Olive Branch,55897,ES,Barcelona,41.383,2.172
128849018942,63,Cafe Paris,5679,GB,London,51.478,-0.014
25769803827,52,The Red Door,72230,FR,Paris,48.857,2.327
8589934659,68,Delish Cafe,12630,NL,Amsterdam,52.334,4.888
60129542211,68,Delish Cafe,71555,NL,Amsterdam,52.347,4.831
85899345923,4,The Blue Plate,18952,US,Bisbee,31.443,-109.913
60129542175,32,The Orange Peeler,71555,ES,Barcelona,41.394,2.112
240518168578,3,Spice Bazaar,93164,US,Houston,29.751,-95.360
197568495660,45,The Green Bean,24784,AT,Vienna,48.183,16.332
8589934628,37,Cafe Crepe,12630,US,Yakima,46.614,-120.512
103079215150,47,The Juicy Burger,4340,IT,Milan,45.488,9.202
128849018904,25,The Cozy Cafe,5679,ES,Barcelona,41.392,2.177
266287972358,7,Cafe Roma,11263,US,Birmingham,33.529,-86.715
171798691874,35,Basilica Bistro,65939,US,Port Angeles,48.110,-123.439
25769803799,24,The Fisherman's Catch,72230,ES,Barcelona,41.394,2.165
25769803821,46,The Italian Table,72230,US,Sumner,47.202,-122.223
51539607583,32,The Orange Peeler,6934,IT,Milan,45.478,9.200
137438953529,58,A Tasty Bite,11038,GB,Woodford Green,51.607,0.059
25769803818,43,The Food House,72230,IT,Milan,45.474,9.196
128849018903,24,The Fisherman's Catch,5679,ES,Barcelona,41.391,2.168
146028888131,68,Delish Cafe,70611,FR,Paris,48.873,2.302
120259084344,57,The Yellow Submarine,59829,GB,London,51.506,-0.140
25769803807,32,The Orange Peeler,72230,US,Southfield,42.472,-83.242
163208757295,48,The Local Cafe,96638,AT,Vienna,48.167,16.345
128849018931,52,The Red Door,5679,FR,Paris,48.852,2.356
60129542178,35,Basilica Bistro,71555,IT,Milan,45.444,9.116
146028888111,48,The Local Cafe,70611,IT,Milan,45.498,9.190
17179869230,47,The Juicy Burger,10902,AT,Vienna,48.207,16.372
17179869247,64,Chateau de Cuisine,10902,FR,Paris,48.875,2.306
68719476772,37,Cafe Crepe,77517,AT,Vienna,48.179,16.363
111669149723,28,The Spicy Pickle,84488,ES,Barcelona,41.391,2.173
120259084292,5,The Hungry Hippo,59829,US,Houston,29.768,-95.460
103079215146,43,The Food House,4340,US,Pembroke,44.956,-67.169
111669149736,41,The Daily Bread,84488,FR,Paris,48.838,2.319
197568495626,11,The Flaming Wok,24784,US,Albuquerque,35.159,-106.585
231928234017,34,The Tasty Treat,33573,US,Seattle,47.661,-122.314
77309411363,36,Blue Ocean Grill,78190,US,Forest Grove,45.521,-123.078
266287972404,53,The Red Rooster,11263,FR,Paris,48.861,2.301
214748364834,35,Basilica Bistro,92040,IT,Milan,45.462,9.181
8589934653,62,Cafe Luminoso,12630,GB,London,51.505,-0.226
5,6,The Daily Grind,47732,US,Columbus,33.514,-88.426
240518168647,72,Flamingo Cafe,93164,GB,London,51.559,-0.285
85899345963,44,The French Kitchen,18952,AT,Vienna,48.216,16.360
180388626466,35,Basilica Bistro,7531,IT,Milan,45.500,9.143
25769803823,48,The Local Cafe,72230,AT,Vienna,48.206,16.378
77309411372,45,The Green Bean,78190,FR,Paris,48.852,2.374
19,20,The Brasserie,47732,ES,Barcelona,41.378,2.176
249108103221,54,The Spice House,55897,FR,Paris,48.838,2.315
231928234008,25,The Cozy Cafe,33573,US,Effingham,43.741,-71.115
68719476757,22,The Red Pepper,77517,ES,Barcelona,41.434,2.147
163208757280,33,The Blue Elephant,96638,ES,Barcelona,41.399,2.144
188978561039,16,The Spice Tree,3642,US,Gallup,35.500,-108.728
120259084321,34,The Tasty Treat,59829,AT,Vienna,48.197,16.341
266287972416,65,Chef's Corner,11263,FR,Paris,48.883,2.298
42949672992,33,The Blue Elephant,89646,US,Albert Lea,43.650,-93.369
163208757261,14,The Gourmet Garden,96638,US,Ruther Glen,37.933,-77.476
103079215108,5,The Hungry Hippo,4340,US,Gulfport,30.425,-89.093
163208757273,26,The Silver Spoon,96638,ES,Barcelona,41.368,2.190
214748364830,31,Bistro 42,92040,US,Minneapolis,44.852,-93.240
249108103190,23,The Hungry Pig,55897,US,Carnegie,40.406,-80.089
197568495637,22,The Red Pepper,24784,US,Indianapolis,39.888,-86.265
154618822718,63,Cafe Paris,41484,GB,London,51.491,-0.145
249108103226,59,Azalea Cafe,55897,FR,Paris,48.869,2.321
146028888138,75,Greenhouse Cafe,70611,GB,London,51.497,-0.168
25769803788,13,The Firehouse,72230,US,East Saint Louis,38.629,-90.175
214748364850,51,The Pizzeria,92040,FR,Paris,48.852,2.339
163208757294,47,The Juicy Burger,96638,AT,Vienna,48.154,16.283
240518168602,27,The Corner Cafe,93164,ES,Barcelona,41.380,2.143
154618822713,58,A Tasty Bite,41484,FR,Paris,48.872,2.345
249108103176,9,The Grill House,55897,US,Kiowa,34.719,-95.900
2,3,Spice Bazaar,47732,US,Hammond,30.518,-90.501
103079215130,27,The Corner Cafe,4340,US,Eagle,39.660,-106.830
180388626435,4,The Blue Plate,7531,US,San Diego,32.724,-117.168
146028888105,42,The Daily Scoop,70611,IT,Milan,45.460,9.177
180388626486,55,The Steak House,7531,GB,London,51.481,-0.007
94489280518,7,Cafe Roma,95399,US,Madisonville,35.506,-84.370
180388626482,51,The Pizzeria,7531,FR,Paris,48.874,2.320
103079215161,58,A Tasty Bite,4340,FR,Paris,48.872,2.328
128849018899,20,The Brasserie,5679,ES,Barcelona,41.379,2.156
63,64,Chateau de Cuisine,47732,GB,London,51.514,-0.157
94489280560,49,The Olive Tree,95399,FR,Paris,48.879,2.358
240518168581,6,The Daily Grind,93164,US,Tucson,32.314,-110.977
111669149733,38,Cafe Viva,84488,AT,Vienna,48.187,16.344
180388626475,44,The French Kitchen,7531,FR,Paris,48.852,2.349
206158430211,4,The Blue Plate,53370,US,Houston,29.940,-95.362
146028888066,3,Spice Bazaar,70611,US,Weslaco,26.172,-97.959
103079215149,46,The Italian Table,4340,IT,Milan,45.464,9.194
94489280567,56,The Waffle House,95399,GB,London,51.512,-0.182
197568495685,70,Earth and Vine,24784,FR,Paris,48.880,2.320
214748364806,7,Cafe Roma,92040,US,Cypress,33.832,-118.024
12,13,The Firehouse,47732,US,Athens,39.354,-81.999
146028888117,54,The Spice House,70611,AT,Vienna,48.201,16.339
120259084337,50,The Pancake House,59829,GB,London,51.494,-0.207
266287972355,4,The Blue Plate,11263,US,San Antonio,29.414,-98.710
249108103189,22,The Red Pepper,55897,US,Harrisburg,40.278,-76.821
137438953526,55,The Steak House,11038,GB,London,51.515,-0.157
180388626495,64,Chateau de Cuisine,7531,GB,London,51.518,-0.150
34359738385,18,The Harvest Room,50333,ES,Barcelona,41.401,2.210
51539607578,27,The Corner Cafe,6934,US,Woodstock,42.040,-74.121
188978561032,9,The Grill House,3642,US,Pawleys Island,33.470,-79.098
249108103186,19,The Tasting Room,55897,US,Springfield,37.957,-122.331
17179869205,22,The Red Pepper,10902,US,Jennerstown,40.164,-79.079
8589934657,66,City Bites,12630,GB,London,51.520,-0.125
51539607591,40,Crimson Cafe,6934,AT,Donauinsel,48.232,16.417
120259084328,41,The Daily Bread,59829,FR,Paris,48.860,2.323
171798691849,10,The Golden Spoon,65939,US,Sunnyvale,37.352,-122.003
171798691884,45,The Green Bean,65939,FR,Paris,48.852,2.345
266287972362,11,The Flaming Wok,11263,US,Osage Beach,38.127,-92.665
180388626447,16,The Spice Tree,7531,US,Portland,40.439,-84.994
120259084346,59,Azalea Cafe,59829,GB,London,51.511,-0.184
137438953490,19,The Tasting Room,11038,US,Cedar Rapids,42.030,-91.652
25769803846,71,Fire and Spice,72230,NL,Amsterdam,52.372,4.887
128849018918,39,Cinnamon Grill,5679,IT,Milan,45.466,9.191
68719476790,55,The Steak House,77517,GB,London,51.513,-0.100
34359738437,70,Earth and Vine,50333,GB,London,51.537,-0.192
17179869234,51,The Pizzeria,10902,FR,Paris,48.838,2.381
249108103177,10,The Golden Spoon,55897,US,Boiling Springs,35.011,-81.955
8589934600,9,The Grill House,12630,US,Ballentine,36.715,-4.426
8589934648,57,The Yellow Submarine,12630,GB,London,51.494,-0.245
111669149722,27,The Corner Cafe,84488,ES,Barcelona,41.386,2.176
197568495703,88,The Royal Cafe,24784,NL,Amsterdam,52.368,4.883
240518168595,20,The Brasserie,93164,US,Kansas City,39.309,-94.683
266287972383,32,The Orange Peeler,11263,US,Rockford,42.273,-88.967
85899345954,35,Basilica Bistro,18952,IT,Milan,45.451,9.161
111669149742,47,The Juicy Burger,84488,FR,Paris,48.867,2.286
94489280568,57,The Yellow Submarine,95399,GB,London,51.518,-0.135
56,57,The Yellow Submarine,47732,GB,London,51.420,-0.211
257698037833,74,Garden of Eatin',26468,NL,Amsterdam,52.370,4.903
128849018911,32,The Orange Peeler,5679,US,Harmony,43.561,-92.011
146028888122,59,Azalea Cafe,70611,FR,Paris,48.835,2.326
51539607584,33,The Blue Elephant,6934,IT,Milan,45.481,9.190
223338299438,47,The Juicy Burger,36937,GB,London,51.493,-0.157
25769803817,42,The Daily Scoop,72230,IT,Milan,45.467,9.143
28,29,The Olive Branch,47732,US,Sioux City,42.508,-96.374
17179869231,48,The Local Cafe,10902,AT,Vienna,48.208,16.368
68719476771,36,Blue Ocean Grill,77517,IT,Milan,45.512,9.124
77309411394,67,Crimson and Clover,78190,GB,London,51.519,-0.132
120259084288,1,Savoria,59829,US,Miami,25.764,-80.266
128849018916,37,Cafe Crepe,5679,IT,Milan,45.452,9.205
137438953507,36,Blue Ocean Grill,11038,AT,Vienna,48.196,16.396
171798691886,47,The Juicy Burger,65939,FR,Paris,48.862,2.341
163208757305,58,A Tasty Bite,96638,FR,Paris,48.870,2.297
163208757262,15,The Pearl Kitchen,96638,US,Sainte Genevieve,37.968,-90.057
163208757256,9,The Grill House,96638,US,Robinsonville,34.819,-90.412
197568495697,82,The Palate,24784,GB,London,51.510,-0.191
240518168576,1,Savoria,93164,US,Bristol,19.435,-99.147
60129542201,58,A Tasty Bite,71555,GB,London,51.509,-0.016
51539607596,45,The Green Bean,6934,FR,Paris,48.865,2.305
257698037777,18,The Harvest Room,26468,US,Garberville,40.102,-123.794
111669149745,50,The Pancake House,84488,FR,Paris,48.871,2.361
42949672975,16,The Spice Tree,89646,US,Fort Bragg,39.426,-123.803
77309411397,70,Earth and Vine,78190,US,Juneau,58.300,-134.406
146028888150,87,The Red Hen,70611,US,East Hickory,52.674,13.569
17179869228,45,The Green Bean,10902,AT,Vienna,48.203,16.367
163208757296,49,The Olive Tree,96638,AT,Vienna,48.202,16.379
257698037760,1,Savoria,26468,US,Fort Lauderdale,26.174,-80.100
223338299448,57,The Yellow Submarine,36937,NL,Amsterdam,52.292,4.944
180388626501,70,Earth and Vine,7531,NL,Amsterdam,52.366,4.899
188978561068,45,The Green Bean,3642,US,Mobridge,45.537,-100.424
42949673011,52,The Red Door,89646,FR,Paris,48.869,2.337
146028888102,39,Cinnamon Grill,70611,US,Shakopee,44.801,-93.509
94489280547,36,Blue Ocean Grill,95399,US,Spearfish,44.476,-103.848
8589934634,43,The Food House,12630,FR,Paris,48.864,2.369
180388626448,17,The Rustic Table,7531,ES,El Prat de Llobregat,41.328,2.113
188978561082,59,Azalea Cafe,3642,FR,Paris,48.854,2.340
77309411356,29,The Olive Branch,78190,US,Saginaw,43.484,-83.969
77309411348,21,The Lazy Daisy,78190,US,Columbia,38.961,-92.289
163208757272,25,The Cozy Cafe,96638,US,Wilmington,41.346,-88.196
94489280522,11,The Flaming Wok,95399,US,Metropolis,37.162,-88.691
60129542190,47,The Juicy Burger,71555,FR,Paris,48.863,2.353
146028888123,60,Big City Grill,70611,FR,Paris,48.845,2.342
77309411355,28,The Spicy Pickle,78190,ES,Barcelona,41.396,2.161
197568495680,65,Chef's Corner,24784,FR,Paris,48.869,2.331
146028888068,5,The Hungry Hippo,70611,US,Austin,30.416,-97.744
146028888132,69,Dragonfly Cafe,70611,FR,Paris,48.873,2.354
103079215160,57,The Yellow Submarine,4340,FR,Paris,48.867,2.337
154618822672,17,The Rustic Table,41484,US,Rockaway Beach,36.705,-93.150
51539607558,7,Cafe Roma,6934,US,Inglewood,33.970,-118.356
8589934592,1,Savoria,12630,US,Marathon,24.712,-81.081
188978561090,67,Crimson and Clover,3642,FR,Paris,48.875,2.305
197568495694,79,The Huckleberry Cafe,24784,GB,London,51.496,-0.145
188978561097,74,Garden of Eatin',3642,GB,Paddington,51.521,-0.171
180388626442,11,The Flaming Wok,7531,US,Livermore,37.698,-121.774
34359738411,44,The French Kitchen,50333,FR,Paris,48.849,2.348
120259084338,51,The Pizzeria,59829,GB,London,51.498,-0.146
257698037789,30,The Wine Cellar,26468,US,Cody,44.517,-109.084
197568495633,18,The Harvest Room,24784,US,Castle Rock,39.409,-104.867
60129542212,69,Dragonfly Cafe,71555,NL,Amsterdam,52.349,4.884
15,16,The Spice Tree,47732,US,Steamboat Springs,40.460,-106.804
25769803806,31,Bistro 42,72230,US,Erie,42.047,-80.080
266287972372,21,The Lazy Daisy,11263,US,Kankakee,41.093,-87.869
51539607579,28,The Spicy Pickle,6934,US,Byron Center,42.825,-85.669
8589934595,4,The Blue Plate,12630,US,Santa Maria,34.940,-120.436
77309411377,50,The Pancake House,78190,FR,Paris,48.865,2.335
42949673025,66,City Bites,89646,GB,London,51.522,-0.047
240518168629,54,The Spice House,93164,AT,Vienna,48.211,16.384
154618822660,5,The Hungry Hippo,41484,US,Bunkie,30.953,-92.185
85899345956,37,Cafe Crepe,18952,IT,Milan,45.463,9.198
51539607587,36,Blue Ocean Grill,6934,US,Woodland,45.907,-122.740
206158430275,68,Delish Cafe,53370,FR,Paris,48.876,2.357
197568495669,54,The Spice House,24784,FR,Paris,48.849,2.341
231928234002,19,The Tasting Room,33573,ES,Barcelona,41.390,2.175
94489280566,55,The Steak House,95399,GB,London,51.501,-0.163
8589934643,52,The Red Door,12630,FR,Paris,48.887,2.333
223338299403,12,The Wooden Spoon,36937,US,Norwood,38.159,-108.241
103079215164,61,Blue Water Bistro,4340,GB,London,51.492,-0.196
257698037761,2,Bella Cucina,26468,US,Pharr,26.218,-98.179
223338299431,40,Crimson Cafe,36937,FR,Paris,48.871,2.328
17179869241,58,A Tasty Bite,10902,FR,Paris,48.855,2.325
188978561051,28,The Spicy Pickle,3642,ES,Barcelona,41.383,2.171
111669149711,16,The Spice Tree,84488,US,Sacramento,38.580,-121.494
214748364805,6,The Daily Grind,92040,US,Palm Springs,33.803,-116.543
34359738384,17,The Rustic Table,50333,ES,Barcelona,41.388,2.167
223338299449,58,A Tasty Bite,36937,NL,Amsterdam,52.354,4.888
103079215114,11,The Flaming Wok,4340,US,Atlanta,33.843,-84.315
25769803836,61,Blue Water Bistro,72230,GB,London,51.512,-0.186
94489280564,53,The Red Rooster,95399,GB,London,51.496,-0.181
188978561094,71,Fire and Spice,3642,GB,London,51.505,-0.219
137438953474,3,Spice Bazaar,11038,US,Buena Park,33.858,-118.029
188978561069,46,The Italian Table,3642,AT,Vienna,48.193,16.358
231928234019,36,Blue Ocean Grill,33573,AT,Vienna,48.204,16.356
17179869222,39,Cinnamon Grill,10902,IT,Milan,45.466,9.178
17179869237,54,The Spice House,10902,FR,Paris,48.849,2.342
85899345942,23,The Hungry Pig,18952,ES,Barcelona,41.383,2.140
257698037808,49,The Olive Tree,26468,FR,Paris,48.848,2.302
163208757259,12,The Wooden Spoon,96638,US,Dublin,37.073,-80.697
42949673012,53,The Red Rooster,89646,FR,Paris,48.870,2.311
25769803839,64,Chateau de Cuisine,72230,GB,London,51.522,-0.086
214748364854,55,The Steak House,92040,FR,Paris,48.864,2.331
240518168634,59,Azalea Cafe,93164,FR,Paris,48.856,2.293
34359738444,77,Harvest Kitchen,50333,NL,Amsterdam,52.392,4.868
206158430289,82,The Palate,53370,GB,London,51.510,-0.076
171798691883,44,The French Kitchen,65939,FR,Paris,48.852,2.278
17179869259,76,Happy Hour Cafe,10902,GB,London,51.513,-0.117
60129542174,31,Bistro 42,71555,ES,Barcelona,41.389,2.121
180388626471,40,Crimson Cafe,7531,AT,Vienna,48.205,16.377
42949672974,15,The Pearl Kitchen,89646,US,Saint Leonard,38.475,-76.507
240518168643,68,Delish Cafe,93164,GB,London,51.513,-0.184
231928233996,13,The Firehouse,33573,US,Colorado Springs,38.916,-104.824
137438953498,27,The Corner Cafe,11038,IT,Milan,45.468,9.155
68719476765,30,The Wine Cellar,77517,IT,Milan,45.441,9.173
85899345951,32,The Orange Peeler,18952,US,Milwaukee,43.039,-87.906
34359738375,8,The Green Olive,50333,US,Alamosa,37.471,-105.860
249108103230,63,Cafe Paris,55897,GB,London,51.492,-0.183
41,42,The Daily Scoop,47732,AT,Vienna,48.159,16.345
